AMC-14                  
1 32708U 08011A   19144.95188314  .00000082  00000-0  00000+0 0  9997
2 32708  20.3381  52.6870 0045418   3.1654 187.0125  1.00275083 42228
DIRECTV 11              
1 32729U 08013A   19145.46785729 -.00000130  00000-0  00000+0 0  9997
2 32729   0.0256  97.8471 0000194 309.5439 264.6247  1.00274572 41061
ICO G1                  
1 32763U 08016A   19144.59875406 -.00000177  00000-0  00000-0 0  9995
2 32763   3.6339   5.7112 0002293  56.1637 302.7290  1.00272681 40708
VINASAT-1               
1 32767U 08018A   19145.00251604 -.00000333  00000-0  00000+0 0  9999
2 32767   0.0117 342.4413 0001924 106.8717 285.8402  1.00273808 40735
STAR ONE C2             
1 32768U 08018B   19145.46475500 -.00000269  00000-0  00000+0 0  9991
2 32768   0.0592 116.5847 0001804 354.6219 228.8526  1.00270424 40679
TIANLIAN 1-01           
1 32779U 08019A   19144.86808333 -.00000144  00000-0  00000+0 0  9993
2 32779   3.3003  73.7365 0032605 251.7229 309.2454  1.00274195 40598
AMOS-3                  
1 32794U 08022A   19144.83179538 -.00000040  00000-0  00000+0 0  9994
2 32794   0.0436 121.5012 0001983 307.5782 108.3733  1.00272015 40574
GALAXY 18 (G-18)        
1 32951U 08024A   19144.73627205  .00000020  00000-0  00000+0 0  9996
2 32951   0.0305  93.9299 0003222 336.3311 313.8253  1.00270999 40219
CHINASAT 9 (ZX 9)       
1 33051U 08028A   19145.42532436 -.00000252  00000-0  00000+0 0  9998
2 33051   0.0167 345.7276 0003916  90.4585  51.8600  1.00271706 40145
SKYNET 5C               
1 33055U 08030A   19145.40334091 -.00000144  00000-0  00000+0 0  9990
2 33055   0.0617   8.6168 0003985  55.2228 306.2473  1.00272974 40034
TURKSAT 3A              
1 33056U 08030B   19144.88313219  .00000141  00000-0  00000-0 0  9998
2 33056   0.0675  92.1099 0005624 340.5434 169.4687  1.00269292 26489
INTELSAT 25 (IS-25)     
1 33153U 08034A   19145.47243176 -.00000228  00000-0  00000+0 0  9996
2 33153   0.0023 162.4318 0000921 229.0963 349.8091  1.00271581 39775
BADR-6                  
1 33154U 08034B   19145.48394691  .00000140  00000-0  00000+0 0  9999
2 33154   0.0595  39.8425 0005941  22.3357  20.8192  1.00270036 39888
ECHOSTAR 11             
1 33207U 08035A   19144.71785676 -.00000062  00000-0  00000+0 0  9995
2 33207   0.0155 276.2658 0002994 132.6434 341.5422  1.00271784 39789
SUPERBIRD-C2            
1 33274U 08038A   19144.85616608 -.00000256  00000-0  00000+0 0  9990
2 33274   0.0470 120.4036 0001983 278.4979 295.4295  1.00272403 39507
AMC-21                  
1 33275U 08038B   19145.47622403  .00000032  00000-0  00000+0 0  9991
2 33275   0.0207 315.2837 0002619 112.6929 221.3368  1.00273171 39591
INMARSAT 4-F3           
1 33278U 08039A   19145.53096705 -.00000144  00000-0  00000+0 0  9997
2 33278   3.0467   8.9819 0002868  56.7827 270.2223  1.00272741 39395
NIMIQ 4                 
1 33373U 08044A   19145.46239963 -.00000225  00000-0  00000+0 0  9996
2 33373   0.0167 315.8022 0002337  96.6892 274.7132  1.00275895 38960
GALAXY 19 (G-19)        
1 33376U 08045A   19145.46230013 -.00000144  00000-0  00000+0 0  9997
2 33376   0.0345 111.0916 0003149 316.4810 244.6073  1.00273005 38965
VENESAT-1               
1 33414U 08055A   19144.80257740 -.00000242  00000-0  00000+0 0  9993
2 33414   0.0158 269.8421 0002928 187.5445 355.6149  1.00267619 38677
ASTRA 1M                
1 33436U 08057A   19144.83650611  .00000114  00000-0  00000-0 0  9994
2 33436   0.0155 269.8212 0004590 186.9535 105.7127  1.00269964 19861
CIEL-2                  
1 33453U 08063A   19144.73513799  .00000053  00000-0  00000+0 0  9995
2 33453   0.0182  74.0854 0003334   1.3362 302.4107  1.00271826 38271
EUTELSAT HOT BIRD 13C   
1 33459U 08065A   19144.87867279  .00000082  00000-0  00000-0 0  9996
2 33459   0.0634  66.7308 0006096   4.0860 140.6769  1.00271038 21477
EUTELSAT 48D            
1 33460U 08065B   19145.18416721  .00000120  00000-0  00000+0 0  9997
2 33460   0.0661  48.8097 0002193  30.5154 277.5325  1.00270140 38243
FENGYUN 2E              
1 33463U 08066A   19144.92173559 -.00000208  00000-0  00000+0 0  9999
2 33463   3.5503  69.2037 0003461 262.7019 328.9196  1.00273096 38215
EXPRESS-AM44            
1 33595U 09007A   19145.18937534 -.00000093  00000-0  00000+0 0  9993
2 33595   0.0113 294.8856 0000993 158.7300 206.0372  1.00271750 37686
NSS-9                   
1 33749U 09008A   19144.78120942  .00000067  00000-0  00000+0 0  9997
2 33749   0.0204  10.5488 0002315  53.7403 282.0984  1.00273310 37698
EUTELSAT 33E            
1 33750U 09008B   19145.19424766  .00000151  00000-0  00000+0 0  9990
2 33750   0.0569  23.9200 0004040  39.7300 281.8653  1.00274870 37738
TELSTAR 11N             
1 34111U 09009A   19145.39941530 -.00000255  00000-0  00000+0 0  9994
2 34111   0.0178 321.4808 0002916 107.2341 280.2262  1.00273515 37556
EUTELSAT 10A            
1 34710U 09016A   19144.83467414  .00000063  00000-0  00000+0 0  9995
2 34710   0.0678  13.8494 0005360  48.4128 130.3453  1.00272568 37097
WGS F2 (USA 204)        
1 34713U 09017A   19145.49075130  .00000043  00000-0  00000+0 0  9990
2 34713   0.0166 328.6135 0000227 111.5830  39.4606  1.00270647 37073
SES-7 (PROTOSTAR 2)     
1 34941U 09027A   19144.92601015 -.00000351  00000-0  00000-0 0  9992
2 34941   0.0448 105.9714 0000476 271.9040 305.9855  1.00273019 36766
MEASAT-3A               
1 35362U 09032A   19145.51160475 -.00000246  00000-0  00000+0 0  9994
2 35362   0.0349 215.4181 0001098 270.4447  32.6250  1.00273604 36364
GOES 14                 
1 35491U 09033A   19145.52965852 -.00000096  00000-0  00000+0 0  9994
2 35491   0.2305 103.7458 0006659 118.7445 106.5481  1.00271383 36287
SIRIUS FM-5             
1 35493U 09034A   19145.15691549 -.00000205  00000-0  00000+0 0  9997
2 35493   0.0153 297.9505 0001037  78.2397 196.6058  1.00272447 36101
TERRESTAR-1             
1 35496U 09035A   19144.66688531 -.00000062  00000-0  00000+0 0  9994
2 35496   2.5124   3.8215 0003231  66.0317 301.1871  1.00271519 36280
ASIASAT 5               
1 35696U 09042A   19145.42698185 -.00000311  00000-0  00000+0 0  9992
2 35696   0.0356 111.1383 0001550 296.4063  89.4073  1.00271300 35805
JCSAT-RA (JCSAT-12)     
1 35755U 09044A   19144.86634080 -.00000037  00000-0  00000+0 0  9996
2 35755   0.0206 260.2992 0002237 169.6104 293.0401  1.00271243 35799
OPTUS D3                
1 35756U 09044B   19145.15090431 -.00000152  00000-0  00000+0 0  9994
2 35756   0.0341  16.2798 0004088  35.8771  40.6185  1.00273072 35767
PALAPA D                
1 35812U 09046A   19145.01320499 -.00000363  00000-0  00000+0 0  9998
2 35812   0.0212  54.5893 0002255  35.5058 269.9314  1.00272638 35809
NIMIQ 5                 
1 35873U 09050A   19145.46423157 -.00000261  00000-0  00000+0 0  9991
2 35873   0.0463 107.9439 0003489 329.1888 260.0425  1.00273301 35494
AMAZONAS 2              
1 35942U 09054A   19144.88858402 -.00000287  00000-0  00000-0 0  9991
2 35942   0.0558 116.8325 0004434 333.1281  51.1337  1.00271721 35318
COMSATBW-1              
1 35943U 09054B   19145.49127471  .00000020  00000-0  00000+0 0  9998
2 35943   0.0251  64.1867 0003616  14.3283  44.1317  1.00272108 35394
NSS-12                  
1 36032U 09058A   19145.49005341  .00000067  00000-0  00000+0 0  9994
2 36032   0.0437  81.9402 0002901 355.6458  38.6100  1.00272832 35069
THOR 6                  
1 36033U 09058B   19145.33497206 -.00000014  00000-0  00000+0 0  9996
2 36033   0.0028 134.0822 0001904 286.6400 301.6679  1.00270959 35101
INTELSAT 14 (IS-14)     
1 36097U 09064A   19145.46955297 -.00000278  00000-0  00000+0 0  9998
2 36097   0.0087 354.2180 0002572  72.1842 300.4063  1.00272293 34835
EUTELSAT 36B            
1 36101U 09065A   19145.19115175  .00000151  00000-0  00000+0 0  9997
2 36101   0.0684  14.2564 0005251  56.7299 276.1960  1.00273674 34945
INTELSAT 15 (IS-15)     
1 36106U 09067A   19145.06497694 -.00000190  00000-0  00000+0 0  9993
2 36106   0.0060 324.9337 0002438 104.2156 281.7538  1.00272456 34728
WGS F3 (USA 211)        
1 36108U 09068A   19145.15118764 -.00000101  00000-0  00000+0 0  9996
2 36108   0.0182 322.5146 0000830 251.6648  70.7150  1.00270469 34643
DIRECTV 12              
1 36131U 09075A   19144.59674764 -.00000109  00000-0  00000+0 0  9992
2 36131   0.0363 150.9280 0000232 251.2133 311.7827  1.00271514 34510
BEIDOU 3                
1 36287U 10001A   19144.93229113 -.00000291  00000-0  00000-0 0  9990
2 36287   1.4112 355.4921 0002885 142.5676 219.7756  1.00267180 34302
RADUGA-1M 2             
1 36358U 10002A   19145.42392859 -.00000188  00000-0  00000+0 0  9997
2 36358   0.0230 254.8642 0001938 193.3599  32.0952  1.00272819 34146
SDO                     
1 36395U 10005A   19144.95601931 -.00000046  00000-0  00000+0 0  9995
2 36395  29.6986 127.9626 0001233 358.5619 358.1580  1.00273839 34153
INTELSAT 16 (IS-16)     
1 36397U 10006A   19145.46380191 -.00000249  00000-0  00000+0 0  9992
2 36397   0.0142 309.3759 0002213 131.2837 252.8657  1.00272798 33867
GOES 15                 
1 36411U 10008A   19145.57951170  .00000052  00000-0  00000+0 0  9995
2 36411   0.1629 101.3344 0002175 355.6140 226.0985  1.00271751 33798
ECHOSTAR 14             
1 36499U 10010A   19144.72341071 -.00000005  00000-0  00000-0 0  9993
2 36499   0.0148 290.3173 0002591 135.3452 317.8894  1.00271930 20691
SES-1                   
1 36516U 10016A   19144.71229984 -.00000120  00000-0  00000-0 0  9994
2 36516   0.0192 308.4535 0002530 109.3658 339.6218  1.00271168 33166
ASTRA 3B                
1 36581U 10021A   19145.19454910  .00000132  00000-0  00000+0 0  9995
2 36581   0.0478 314.3240 0002698 113.7592 267.9617  1.00272515 32774
COMSATBW-2              
1 36582U 10021B   19144.87867279  .00000083  00000-0  00000-0 0  9992
2 36582   0.0343  91.7641 0003252 355.0258 124.8787  1.00273949 33091
